start=new Date('2021-09-11T00:00:00.000Z').valueOf();
sats=[{"SEMIMAJOR_AXIS":"6925.341","MEAN_MOTION":"15.06402623","FILE":"3112758","SITE":"AFETR","PERIOD":"95.592","EPHEMERIS_TYPE":"0","OBJECT_TYPE":"PAYLOAD","ELEMENT_SET_NO":"999","CLASSIFICATION_TYPE":"U","GP_ID":"184472514","OBJECT_NAME":"STARLINK-1453","COUNTRY_CODE":"US","DECAY_DATE":null,"RA_OF_ASC_NODE":"202.4949","MEAN_MOTION_DDOT":"0.0000000000000","MEAN_MOTION_DOT":"-0.00000892","BSTAR":"-0.00004097800000","INCLINATION":"53.0531","ARG_OF_PERICENTER":"67.0347","ECCENTRICITY":"0.00014510","RCS_SIZE":"LARGE","OBJECT_ID":"2020-035P","LAUNCH_DATE":"2020-06-04","TLE_LINE1":"1 45670U 20035P   21253.88234304 -.00000892  00000-0 -40978-4 0  9990","TLE_LINE2":"2 45670  53.0531 202.4949 0001451  67.0347 293.0795 15.06402623 71731","NORAD_CAT_ID":"45670","PERIAPSIS":"546.201","CENTER_NAME":"EARTH","MEAN_ANOMALY":"293.0795","REF_FRAME":"TEME","TIME_SYSTEM":"UTC","EPOCH":"2021-09-10T21:10:34.438656","REV_AT_EPOCH":"7173","MEAN_ELEMENT_THEORY":"SGP4","APOAPSIS":"548.210"},{"SEMIMAJOR_AXIS":"6925.346","MEAN_MOTION":"15.06400748","FILE":"3112758","SITE":"AFETR","PERIOD":"95.592","ELEMENT_SET_NO":"999","CLASSIFICATION_TYPE":"U","GP_ID":"184473266","OBJECT_NAME":"STARLINK-1454","COUNTRY_CODE":"US","OBJECT_TYPE":"PAYLOAD","EPHEMERIS_TYPE":"0","MEAN_MOTION_DDOT":"0.0000000000000","MEAN_MOTION_DOT":"0.00001368","DECAY_DATE":null,"RA_OF_ASC_NODE":"234.5267","RCS_SIZE":"LARGE","BSTAR":"0.00011070000000","INCLINATION":"53.0532","ARG_OF_PERICENTER":"63.6460","ECCENTRICITY":"0.00011430","TLE_LINE1":"1 45671U 20035Q   21253.42990267  .00001368  00000-0  11070-3 0  9995","OBJECT_ID":"2020-035Q","LAUNCH_DATE":"2020-06-04","REF_FRAME":"TEME","TIME_SYSTEM":"UTC","EPOCH":"2021-09-10T10:19:03.590688","TLE_LINE2":"2 45671  53.0532 234.5267 0001143  63.6460 296.4646 15.06400748 71343","PERIAPSIS":"546.420","NORAD_CAT_ID":"45671","CENTER_NAME":"EARTH","MEAN_ANOMALY":"296.4646","APOAPSIS":"548.003","MEAN_ELEMENT_THEORY":"SGP4","REV_AT_EPOCH":"7134"},{"TLE_LINE2":"2 45672  53.0557 202.4008 0001813  59.9961 300.1208 15.06393196 71846","NORAD_CAT_ID":"45672","PERIAPSIS":"545.979","CENTER_NAME":"EARTH","MEAN_ANOMALY":"300.1208","REF_FRAME":"TEME","TIME_SYSTEM":"UTC","EPOCH":"2021-09-10T21:42:26.384256","REV_AT_EPOCH":"7184","MEAN_ELEMENT_THEORY":"SGP4","APOAPSIS":"548.490","BSTAR":"-0.00003781500000","INCLINATION":"53.0557","ARG_OF_PERICENTER":"59.9961","ECCENTRICITY":"0.00018130","RCS_SIZE":"LARGE","OBJECT_ID":"2020-035R","LAUNCH_DATE":"2020-06-04","TLE_LINE1":"1 45672U 20035R   21253.90447204 -.00000845  00000-0 -37815-4 0  9994","EPHEMERIS_TYPE":"0","OBJECT_TYPE":"PAYLOAD","ELEMENT_SET_NO":"999","GP_ID":"184473017","CLASSIFICATION_TYPE":"U","OBJECT_NAME":"STARLINK-1455","COUNTRY_CODE":"US","DECAY_DATE":null,"RA_OF_ASC_NODE":"202.4008","MEAN_MOTION_DDOT":"0.0000000000000","MEAN_MOTION_DOT":"-0.00000845","SEMIMAJOR_AXIS":"6925.369","MEAN_MOTION":"15.06393196","FILE":"3112758","SITE":"AFETR","PERIOD":"95.593"},{"LAUNCH_DATE":"2020-06-04","OBJECT_ID":"2020-035S","TLE_LINE1":"1 45673U 20035S   21253.44464908  .00000130  00000-0  27600-4 0  9990","INCLINATION":"53.0544","ARG_OF_PERICENTER":"76.3915","ECCENTRICITY":"0.00013670","BSTAR":"0.00002760000000","RCS_SIZE":"LARGE","REV_AT_EPOCH":"7136","APOAPSIS":"548.172","MEAN_ELEMENT_THEORY":"SGP4","MEAN_ANOMALY":"283.7226","TLE_LINE2":"2 45673  53.0544 234.4655 0001367  76.3915 283.7226 15.06396209 71363","PERIAPSIS":"546.278","NORAD_CAT_ID":"45673","CENTER_NAME":"EARTH","EPOCH":"2021-09-10T10:40:17.680512","REF_FRAME":"TEME","TIME_SYSTEM":"UTC","SITE":"AFETR","PERIOD":"95.592","FILE":"3112758","MEAN_MOTION":"15.06396209","SEMIMAJOR_AXIS":"6925.360","RA_OF_ASC_NODE":"234.4655","DECAY_DATE":null,"MEAN_MOTION_DOT":"0.00000130","MEAN_MOTION_DDOT":"0.0000000000000","EPHEMERIS_TYPE":"0","OBJECT_TYPE":"PAYLOAD","OBJECT_NAME":"STARLINK-1456","COUNTRY_CODE":"US","ELEMENT_SET_NO":"999","GP_ID":"184471765","CLASSIFICATION_TYPE":"U"},{"MEAN_MOTION":"15.06403168","FILE":"3112362","SITE":"AFETR","PERIOD":"95.592","SEMIMAJOR_AXIS":"6925.339","MEAN_MOTION_DDOT":"0.0000000000000","MEAN_MOTION_DOT":"-0.00000324","DECAY_DATE":null,"RA_OF_ASC_NODE":"235.9178","ELEMENT_SET_NO":"999","CLASSIFICATION_TYPE":"U","GP_ID":"184439601","OBJECT_NAME":"STARLINK-1457","COUNTRY_CODE":"US","EPHEMERIS_TYPE":"0","OBJECT_TYPE":"PAYLOAD","TLE_LINE1":"1 45674U 20035T   21253.12028492 -.00000324  00000-0 -28877-5 0  9995","LAUNCH_DATE":"2020-06-04","OBJECT_ID":"2020-035T","RCS_SIZE":"LARGE","BSTAR":"-0.00000288770000","INCLINATION":"53.0532","ARG_OF_PERICENTER":"62.7818","ECCENTRICITY":"0.00012170","APOAPSIS":"548.047","MEAN_ELEMENT_THEORY":"SGP4","REV_AT_EPOCH":"7128","REF_FRAME":"TEME","TIME_SYSTEM":"UTC","EPOCH":"2021-09-10T02:53:12.617088","PERIAPSIS":"546.361","TLE_LINE2":"2 45674  53.0532 235.9178 0001217  62.7818 297.3295 15.06403168 71283","NORAD_CAT_ID":"45674","CENTER_NAME":"EARTH","MEAN_ANOMALY":"297.3295"},{"TLE_LINE2":"2 45675  53.0540 234.4832 0001168  66.9554 293.1558 15.06406765 71329","NORAD_CAT_ID":"45675","PERIAPSIS":"546.384","CENTER_NAME":"EARTH","MEAN_ANOMALY":"293.1558","REF_FRAME":"TEME","TIME_SYSTEM":"UTC","EPOCH":"2021-09-10T10:34:59.146176","REV_AT_EPOCH":"7132","APOAPSIS":"548.002","MEAN_ELEMENT_THEORY":"SGP4","BSTAR":"0.00011858000000","ARG_OF_PERICENTER":"66.9554","INCLINATION":"53.0540","ECCENTRICITY":"0.00011680","RCS_SIZE":"LARGE","OBJECT_ID":"2020-035U","LAUNCH_DATE":"2020-06-04","TLE_LINE1":"1 45675U 20035U   21253.44096234  .00001486  00000-0  11858-3 0  9997","OBJECT_TYPE":"PAYLOAD","EPHEMERIS_TYPE":"0","ELEMENT_SET_NO":"999","CLASSIFICATION_TYPE":"U","GP_ID":"184472767","OBJECT_NAME":"STARLINK-1458","COUNTRY_CODE":"US","DECAY_DATE":null,"RA_OF_ASC_NODE":"234.4832","MEAN_MOTION_DDOT":"0.0000000000000","MEAN_MOTION_DOT":"0.00001486","SEMIMAJOR_AXIS":"6925.328","MEAN_MOTION":"15.06406765","FILE":"3112758","SITE":"AFETR","PERIOD":"95.592"},{"TLE_LINE1":"1 45676U 20035V   21253.94224308  .00000986  00000-0  85026-4 0  9991","OBJECT_ID":"2020-035V","LAUNCH_DATE":"2020-06-04","RCS_SIZE":"LARGE","BSTAR":"0.00008502600000","ARG_OF_PERICENTER":"56.9883","INCLINATION":"53.0525","ECCENTRICITY":"0.00012000","APOAPSIS":"548.025","MEAN_ELEMENT_THEORY":"SGP4","REV_AT_EPOCH":"7139","REF_FRAME":"TEME","TIME_SYSTEM":"UTC","EPOCH":"2021-09-10T22:36:49.802112","PERIAPSIS":"546.363","TLE_LINE2":"2 45676  53.0525 232.2249 0001200  56.9883 303.1221 15.06406468 71398","NORAD_CAT_ID":"45676","CENTER_NAME":"EARTH","MEAN_ANOMALY":"303.1221","FILE":"3112758","MEAN_MOTION":"15.06406468","SITE":"AFETR","PERIOD":"95.592","SEMIMAJOR_AXIS":"6925.329","MEAN_MOTION_DDOT":"0.0000000000000","MEAN_MOTION_DOT":"0.00000986","DECAY_DATE":null,"RA_OF_ASC_NODE":"232.2249","ELEMENT_SET_NO":"999","GP_ID":"184473517","CLASSIFICATION_TYPE":"U","OBJECT_NAME":"STARLINK-1460","COUNTRY_CODE":"US","OBJECT_TYPE":"PAYLOAD","EPHEMERIS_TYPE":"0"},{"REV_AT_EPOCH":"7134","APOAPSIS":"548.191","MEAN_ELEMENT_THEORY":"SGP4","TLE_LINE2":"2 45677  53.0544 234.8560 0001400  65.4608 294.6526 15.06397582 71349","NORAD_CAT_ID":"45677","PERIAPSIS":"546.251","CENTER_NAME":"EARTH","MEAN_ANOMALY":"294.6526","REF_FRAME":"TEME","TIME_SYSTEM":"UTC","EPOCH":"2021-09-10T08:32:54.117888","LAUNCH_DATE":"2020-06-04","OBJECT_ID":"2020-035W","TLE_LINE1":"1 45677U 20035W   21253.35618192 -.00000359  00000-0 -51980-5 0  9994","BSTAR":"-0.00000519800000","INCLINATION":"53.0544","ARG_OF_PERICENTER":"65.4608","ECCENTRICITY":"0.00014000","RCS_SIZE":"LARGE","DECAY_DATE":null,"RA_OF_ASC_NODE":"234.8560","MEAN_MOTION_DDOT":"0.0000000000000","MEAN_MOTION_DOT":"-0.00000359","OBJECT_TYPE":"PAYLOAD","EPHEMERIS_TYPE":"0","ELEMENT_SET_NO":"999","GP_ID":"184439852","CLASSIFICATION_TYPE":"U","OBJECT_NAME":"STARLINK-1392","COUNTRY_CODE":"US","MEAN_MOTION":"15.06397582","FILE":"3112362","SITE":"AFETR","PERIOD":"95.592","SEMIMAJOR_AXIS":"6925.356"},{"MEAN_MOTION_DDOT":"0.0000000000000","MEAN_MOTION_DOT":"0.00000993","DECAY_DATE":null,"RA_OF_ASC_NODE":"222.5050","GP_ID":"184472515","CLASSIFICATION_TYPE":"U","ELEMENT_SET_NO":"999","COUNTRY_CODE":"US","OBJECT_NAME":"STARLINK-1393","OBJECT_TYPE":"PAYLOAD","EPHEMERIS_TYPE":"0","FILE":"3112758","MEAN_MOTION":"15.06401884","PERIOD":"95.592","SITE":"AFETR","SEMIMAJOR_AXIS":"6925.343","MEAN_ELEMENT_THEORY":"SGP4","APOAPSIS":"547.972","REV_AT_EPOCH":"7154","TIME_SYSTEM":"UTC","REF_FRAME":"TEME","EPOCH":"2021-09-10T21:07:55.360704","CENTER_NAME":"EARTH","NORAD_CAT_ID":"45678","TLE_LINE2":"2 45678  53.0530 222.5050 0001104  53.6597 306.4493 15.06401884 71548","PERIAPSIS":"546.443","MEAN_ANOMALY":"306.4493","TLE_LINE1":"1 45678U 20035X   21253.88050186  .00000993  00000-0  85505-4 0  9997","OBJECT_ID":"2020-035X","LAUNCH_DATE":"2020-06-04","RCS_SIZE":"LARGE","BSTAR":"0.00008550500000","ECCENTRICITY":"0.00011040","INCLINATION":"53.0530","ARG_OF_PERICENTER":"53.6597"},{"PERIOD":"95.592","SITE":"AFETR","MEAN_MOTION":"15.06400087","FILE":"3112758","SEMIMAJOR_AXIS":"6925.348","MEAN_MOTION_DOT":"0.00001101","MEAN_MOTION_DDOT":"0.0000000000000","RA_OF_ASC_NODE":"222.4852","DECAY_DATE":null,"COUNTRY_CODE":"US","OBJECT_NAME":"STARLINK-1394","CLASSIFICATION_TYPE":"U","GP_ID":"184473267","ELEMENT_SET_NO":"999","OBJECT_TYPE":"PAYLOAD","EPHEMERIS_TYPE":"0","TLE_LINE1":"1 45679U 20035Y   21253.88418898  .00001101  00000-0  92797-4 0  9999","LAUNCH_DATE":"2020-06-04","OBJECT_ID":"2020-035Y","RCS_SIZE":"LARGE","ECCENTRICITY":"0.00011550","INCLINATION":"53.0541","ARG_OF_PERICENTER":"65.6242","BSTAR":"0.00009279700000","MEAN_ELEMENT_THEORY":"SGP4","APOAPSIS":"548.013","REV_AT_EPOCH":"7156","EPOCH":"2021-09-10T21:13:13.927872","TIME_SYSTEM":"UTC","REF_FRAME":"TEME","MEAN_ANOMALY":"294.4868","CENTER_NAME":"EARTH","PERIAPSIS":"546.413","TLE_LINE2":"2 45679  53.0541 222.4852 0001155  65.6242 294.4868 15.06400087 71564","NORAD_CAT_ID":"45679"}];
